CCSDS_OMM_VERS = 2.0
CREATION_DATE  = 
ORIGINATOR     = 

OBJECT_NAME    = SDA_1665
OBJECT_ID      = 2025-230B
CENTER_NAME    = EARTH
REF_FRAME      = TEME
TIME_SYSTEM    = UTC
MEAN_ELEMENT_THEORY = SGP/SGP4

EPOCH          = 2025-11-12T07:19:08.931936
MEAN_MOTION    = 13.85429651
ECCENTRICITY   = .00050086
INCLINATION    = 81.3038
RA_OF_ASC_NODE = 52.8186
ARG_OF_PERICENTER = 88.2950
MEAN_ANOMALY   = 271.8781

EPHEMERIS_TYPE = 0
CLASSIFICATION_TYPE = U
NORAD_CAT_ID   = 65975
ELEMENT_SET_NO = 999
REV_AT_EPOCH   = 379
BSTAR          = .40127281E-3
MEAN_MOTION_DOT = .469E-5
MEAN_MOTION_DDOT = 0

CCSDS_OMM_VERS = 2.0
CREATION_DATE  = 
ORIGINATOR     = 

OBJECT_NAME    = SDA_1666
OBJECT_ID      = 2025-230C
CENTER_NAME    = EARTH
REF_FRAME      = TEME
TIME_SYSTEM    = UTC
MEAN_ELEMENT_THEORY = SGP/SGP4

EPOCH          = 2025-11-12T07:41:51.948096
MEAN_MOTION    = 13.84627955
ECCENTRICITY   = .00027778
INCLINATION    = 81.3010
RA_OF_ASC_NODE = 52.8280
ARG_OF_PERICENTER = 44.0921
MEAN_ANOMALY   = 316.0457

EPHEMERIS_TYPE = 0
CLASSIFICATION_TYPE = U
NORAD_CAT_ID   = 65976
ELEMENT_SET_NO = 999
REV_AT_EPOCH   = 379
BSTAR          = .38567713E-3
MEAN_MOTION_DOT = .445E-5
MEAN_MOTION_DDOT = 0

CCSDS_OMM_VERS = 2.0
CREATION_DATE  = 
ORIGINATOR     = 

OBJECT_NAME    = SDA_1667
OBJECT_ID      = 2025-230D
CENTER_NAME    = EARTH
REF_FRAME      = TEME
TIME_SYSTEM    = UTC
MEAN_ELEMENT_THEORY = SGP/SGP4

EPOCH          = 2025-11-12T07:34:44.671584
MEAN_MOTION    = 13.84879089
ECCENTRICITY   = .00037241
INCLINATION    = 81.3005
RA_OF_ASC_NODE = 52.8201
ARG_OF_PERICENTER = 57.2024
MEAN_ANOMALY   = 302.9492

EPHEMERIS_TYPE = 0
CLASSIFICATION_TYPE = U
NORAD_CAT_ID   = 65977
ELEMENT_SET_NO = 999
REV_AT_EPOCH   = 379
BSTAR          = .40221132E-3
MEAN_MOTION_DOT = .465E-5
MEAN_MOTION_DDOT = 0

CCSDS_OMM_VERS = 2.0
CREATION_DATE  = 
ORIGINATOR     = 

OBJECT_NAME    = SDA_1668
OBJECT_ID      = 2025-230E
CENTER_NAME    = EARTH
REF_FRAME      = TEME
TIME_SYSTEM    = UTC
MEAN_ELEMENT_THEORY = SGP/SGP4

EPOCH          = 2025-11-12T07:17:58.337952
MEAN_MOTION    = 13.85471535
ECCENTRICITY   = .00049318
INCLINATION    = 81.3021
RA_OF_ASC_NODE = 52.8081
ARG_OF_PERICENTER = 91.0769
MEAN_ANOMALY   = 269.0953

EPHEMERIS_TYPE = 0
CLASSIFICATION_TYPE = U
NORAD_CAT_ID   = 65978
ELEMENT_SET_NO = 999
REV_AT_EPOCH   = 379
BSTAR          = .41687443E-3
MEAN_MOTION_DOT = .487E-5
MEAN_MOTION_DDOT = 0

CCSDS_OMM_VERS = 2.0
CREATION_DATE  = 
ORIGINATOR     = 

OBJECT_NAME    = SDA_1669
OBJECT_ID      = 2025-230F
CENTER_NAME    = EARTH
REF_FRAME      = TEME
TIME_SYSTEM    = UTC
MEAN_ELEMENT_THEORY = SGP/SGP4

EPOCH          = 2025-11-12T07:24:34.377408
MEAN_MOTION    = 13.85238228
ECCENTRICITY   = .00049581
INCLINATION    = 81.3024
RA_OF_ASC_NODE = 52.8149
ARG_OF_PERICENTER = 78.2568
MEAN_ANOMALY   = 281.9145

EPHEMERIS_TYPE = 0
CLASSIFICATION_TYPE = U
NORAD_CAT_ID   = 65979
ELEMENT_SET_NO = 999
REV_AT_EPOCH   = 379
BSTAR          = .40177699E-3
MEAN_MOTION_DOT = .468E-5
MEAN_MOTION_DDOT = 0

CCSDS_OMM_VERS = 2.0
CREATION_DATE  = 
ORIGINATOR     = 

OBJECT_NAME    = SDA_1670
OBJECT_ID      = 2025-230G
CENTER_NAME    = EARTH
REF_FRAME      = TEME
TIME_SYSTEM    = UTC
MEAN_ELEMENT_THEORY = SGP/SGP4

EPOCH          = 2025-11-12T07:36:34.445376
MEAN_MOTION    = 13.84814996
ECCENTRICITY   = .00033761
INCLINATION    = 81.3001
RA_OF_ASC_NODE = 52.8204
ARG_OF_PERICENTER = 53.4992
MEAN_ANOMALY   = 306.6475

EPHEMERIS_TYPE = 0
CLASSIFICATION_TYPE = U
NORAD_CAT_ID   = 65980
ELEMENT_SET_NO = 999
REV_AT_EPOCH   = 379
BSTAR          = .40277004E-3
MEAN_MOTION_DOT = .466E-5
MEAN_MOTION_DDOT = 0

CCSDS_OMM_VERS = 2.0
CREATION_DATE  = 
ORIGINATOR     = 

OBJECT_NAME    = SDA_1671
OBJECT_ID      = 2025-230H
CENTER_NAME    = EARTH
REF_FRAME      = TEME
TIME_SYSTEM    = UTC
MEAN_ELEMENT_THEORY = SGP/SGP4

EPOCH          = 2025-11-12T07:20:58.430976
MEAN_MOTION    = 13.85364778
ECCENTRICITY   = .00049519
INCLINATION    = 81.3028
RA_OF_ASC_NODE = 52.8125
ARG_OF_PERICENTER = 85.2369
MEAN_ANOMALY   = 274.9354

EPHEMERIS_TYPE = 0
CLASSIFICATION_TYPE = U
NORAD_CAT_ID   = 65981
ELEMENT_SET_NO = 999
REV_AT_EPOCH   = 379
BSTAR          = .42251884E-3
MEAN_MOTION_DOT = .492E-5
MEAN_MOTION_DDOT = 0

CCSDS_OMM_VERS = 2.0
CREATION_DATE  = 
ORIGINATOR     = 

OBJECT_NAME    = SDA_1672
OBJECT_ID      = 2025-230J
CENTER_NAME    = EARTH
REF_FRAME      = TEME
TIME_SYSTEM    = UTC
MEAN_ELEMENT_THEORY = SGP/SGP4

EPOCH          = 2025-11-12T07:32:31.439328
MEAN_MOTION    = 13.84957410
ECCENTRICITY   = .00041111
INCLINATION    = 81.3035
RA_OF_ASC_NODE = 52.8263
ARG_OF_PERICENTER = 58.9497
MEAN_ANOMALY   = 301.2064

EPHEMERIS_TYPE = 0
CLASSIFICATION_TYPE = U
NORAD_CAT_ID   = 65982
ELEMENT_SET_NO = 999
REV_AT_EPOCH   = 379
BSTAR          = .39161785E-3
MEAN_MOTION_DOT = .454E-5
MEAN_MOTION_DDOT = 0

CCSDS_OMM_VERS = 2.0
CREATION_DATE  = 
ORIGINATOR     = 

OBJECT_NAME    = SDA_1673
OBJECT_ID      = 2025-230K
CENTER_NAME    = EARTH
REF_FRAME      = TEME
TIME_SYSTEM    = UTC
MEAN_ELEMENT_THEORY = SGP/SGP4

EPOCH          = 2025-11-12T07:15:31.716288
MEAN_MOTION    = 13.85558137
ECCENTRICITY   = .00051028
INCLINATION    = 81.3033
RA_OF_ASC_NODE = 52.8123
ARG_OF_PERICENTER = 95.5204
MEAN_ANOMALY   = 264.6536

EPHEMERIS_TYPE = 0
CLASSIFICATION_TYPE = U
NORAD_CAT_ID   = 65983
ELEMENT_SET_NO = 999
REV_AT_EPOCH   = 379
BSTAR          = .44776571E-3
MEAN_MOTION_DOT = .523E-5
MEAN_MOTION_DDOT = 0

CCSDS_OMM_VERS = 2.0
CREATION_DATE  = 
ORIGINATOR     = 

OBJECT_NAME    = SDA_1674
OBJECT_ID      = 2025-230L
CENTER_NAME    = EARTH
REF_FRAME      = TEME
TIME_SYSTEM    = UTC
MEAN_ELEMENT_THEORY = SGP/SGP4

EPOCH          = 2025-11-12T07:20:00.426336
MEAN_MOTION    = 13.85399354
ECCENTRICITY   = .00049107
INCLINATION    = 81.3025
RA_OF_ASC_NODE = 52.8106
ARG_OF_PERICENTER = 87.1369
MEAN_ANOMALY   = 273.0351

EPHEMERIS_TYPE = 0
CLASSIFICATION_TYPE = U
NORAD_CAT_ID   = 65984
ELEMENT_SET_NO = 999
REV_AT_EPOCH   = 379
BSTAR          = .42065983E-3
MEAN_MOTION_DOT = .491E-5
MEAN_MOTION_DDOT = 0

CCSDS_OMM_VERS = 2.0
CREATION_DATE  = 
ORIGINATOR     = 

OBJECT_NAME    = SDA_1675
OBJECT_ID      = 2025-230M
CENTER_NAME    = EARTH
REF_FRAME      = TEME
TIME_SYSTEM    = UTC
MEAN_ELEMENT_THEORY = SGP/SGP4

EPOCH          = 2025-11-12T07:39:02.247264
MEAN_MOTION    = 13.84727665
ECCENTRICITY   = .00032234
INCLINATION    = 81.3001
RA_OF_ASC_NODE = 52.8226
ARG_OF_PERICENTER = 48.4845
MEAN_ANOMALY   = 311.6588

EPHEMERIS_TYPE = 0
CLASSIFICATION_TYPE = U
NORAD_CAT_ID   = 65985
ELEMENT_SET_NO = 999
REV_AT_EPOCH   = 379
BSTAR          = .3714547E-3
MEAN_MOTION_DOT = .43E-5
MEAN_MOTION_DDOT = 0

CCSDS_OMM_VERS = 2.0
CREATION_DATE  = 
ORIGINATOR     = 

OBJECT_NAME    = SDA_1676
OBJECT_ID      = 2025-230N
CENTER_NAME    = EARTH
REF_FRAME      = TEME
TIME_SYSTEM    = UTC
MEAN_ELEMENT_THEORY = SGP/SGP4

EPOCH          = 2025-11-12T07:43:18.264288
MEAN_MOTION    = 13.84577588
ECCENTRICITY   = .00024648
INCLINATION    = 81.3032
RA_OF_ASC_NODE = 52.8347
ARG_OF_PERICENTER = 39.9883
MEAN_ANOMALY   = 320.1455

EPHEMERIS_TYPE = 0
CLASSIFICATION_TYPE = U
NORAD_CAT_ID   = 65986
ELEMENT_SET_NO = 999
REV_AT_EPOCH   = 379
BSTAR          = .38547432E-3
MEAN_MOTION_DOT = .444E-5
MEAN_MOTION_DDOT = 0

CCSDS_OMM_VERS = 2.0
CREATION_DATE  = 
ORIGINATOR     = 

OBJECT_NAME    = SDA_1677
OBJECT_ID      = 2025-230P
CENTER_NAME    = EARTH
REF_FRAME      = TEME
TIME_SYSTEM    = UTC
MEAN_ELEMENT_THEORY = SGP/SGP4

EPOCH          = 2025-11-12T07:40:52.093632
MEAN_MOTION    = 13.84663282
ECCENTRICITY   = .0002828
INCLINATION    = 81.3005
RA_OF_ASC_NODE = 52.8259
ARG_OF_PERICENTER = 44.5649
MEAN_ANOMALY   = 315.5735

EPHEMERIS_TYPE = 0
CLASSIFICATION_TYPE = U
NORAD_CAT_ID   = 65987
ELEMENT_SET_NO = 999
REV_AT_EPOCH   = 379
BSTAR          = .39831229E-3
MEAN_MOTION_DOT = .459E-5
MEAN_MOTION_DDOT = 0

CCSDS_OMM_VERS = 2.0
CREATION_DATE  = 
ORIGINATOR     = 

OBJECT_NAME    = SDA_1678
OBJECT_ID      = 2025-230Q
CENTER_NAME    = EARTH
REF_FRAME      = TEME
TIME_SYSTEM    = UTC
MEAN_ELEMENT_THEORY = SGP/SGP4

EPOCH          = 2025-11-12T07:16:46.752960
MEAN_MOTION    = 13.85513613
ECCENTRICITY   = .00050018
INCLINATION    = 81.3037
RA_OF_ASC_NODE = 52.8153
ARG_OF_PERICENTER = 93.5145
MEAN_ANOMALY   = 266.6584

EPHEMERIS_TYPE = 0
CLASSIFICATION_TYPE = U
NORAD_CAT_ID   = 65988
ELEMENT_SET_NO = 999
REV_AT_EPOCH   = 379
BSTAR          = .45520844E-3
MEAN_MOTION_DOT = .531E-5
MEAN_MOTION_DDOT = 0

CCSDS_OMM_VERS = 2.0
CREATION_DATE  = 
ORIGINATOR     = 

OBJECT_NAME    = SDA_1679
OBJECT_ID      = 2025-230R
CENTER_NAME    = EARTH
REF_FRAME      = TEME
TIME_SYSTEM    = UTC
MEAN_ELEMENT_THEORY = SGP/SGP4

EPOCH          = 2025-11-12T07:22:29.208000
MEAN_MOTION    = 13.85311843
ECCENTRICITY   = .00051159
INCLINATION    = 81.3035
RA_OF_ASC_NODE = 52.8207
ARG_OF_PERICENTER = 82.2347
MEAN_ANOMALY   = 277.9391

EPHEMERIS_TYPE = 0
CLASSIFICATION_TYPE = U
NORAD_CAT_ID   = 65989
ELEMENT_SET_NO = 999
REV_AT_EPOCH   = 379
BSTAR          = .41602547E-3
MEAN_MOTION_DOT = .485E-5
MEAN_MOTION_DDOT = 0

